HODOYOSHI-4             
1 40011U 14033B   24186.15568612  .00001837  00000+0  22363-3 0  9999
2 40011  97.5807  35.0156 0026197 141.3219 218.9878 14.84340519542889
DEIMOS-2                
1 40013U 14033D   24186.19129279  .00002194  00000+0  23935-3 0  9990
2 40013  97.6798  72.3526 0001846 114.1287 246.0124 14.88918268544292
HODOYOSHI-3             
1 40015U 14033F   24185.77832420  .00002347  00000+0  30389-3 0  9995
2 40015  97.5966  10.7177 0035296 178.4131 181.7201 14.81315727541837
SPOT 7                  
1 40053U 14034A   24186.19964922  .00000813  00000+0  18125-3 0  9998
2 40053  98.1576 252.7055 0001047  90.3787 269.7533 14.59418762533094
SKYSAT-B                
1 40072U 14037D   24185.83165770  .00001954  00000+0  24086-3 0  9996
2 40072  98.3326  98.3401 0007482  73.0889 287.1144 14.84148038539990
WORLDVIEW-3 (WV-3)      
1 40115U 14048A   24185.90839719  .00001717  00000+0  20690-3 0  9999
2 40115  97.8679 258.9444 0001955  86.3171 273.8267 14.85146183536056
GAOFEN-2                
1 40118U 14049A   24186.03541040  .00001720  00000+0  23085-3 0  9990
2 40118  98.0205 236.0516 0009626  31.0850 329.0930 14.80613038533723
YAOGAN-21               
1 40143U 14053A   24186.44188087  .00010999  00000+0  46834-3 0  9991
2 40143  97.2471 243.9254 0009857 112.6012 258.2154 15.23101492546443
YAOGAN-22               
1 40275U 14063A   24185.89147271 -.00000039  00000+0  17828-4 0  9993
2 40275 100.6656 317.8677 0006271   2.7254 357.3891 13.15483929466028
ASNARO                  
1 40298U 14070A   24186.20564119  .00013284  00000+0  62478-3 0  9991
2 40298  97.4119 267.4359 0008099 148.2719 211.9005 15.19666815535751
HODOYOSHI-1             
1 40299U 14070B   24186.17384881  .00025074  00000+0  46051-3 0  9993
2 40299  97.1383 246.0952 0005600 342.1536  17.9518 15.49215812537756
YAOGAN-23               
1 40305U 14071A   24186.19727134  .00041665  00000+0  68689-3 0  9991
2 40305  97.6875 172.3955 0002502  95.8426 264.3111 15.52191201535032
YAOGAN-24               
1 40310U 14072A   24186.13963773  .00001347  00000+0  20206-3 0  9999
2 40310  98.0576 310.6434 0014324  34.7518 325.4624 14.76195069518545
CBERS 4                 
1 40336U 14079A   24186.19594428  .00000221  00000+0  91536-4 0  9992
2 40336  98.3997 254.0840 0000708  81.7305 278.3961 14.35494386501688
RESURS-P 2              
1 40360U 14087A   24186.18953832  .00027392  00000+0  33396-3 0  9992
2 40360  97.1521 272.8708 0005487 217.8846 142.2026 15.60443951533718
YAOGAN-26               
1 40362U 14088A   24186.22140644  .00012973  00000+0  54873-3 0  9991
2 40362  97.0829 206.2821 0002953  23.4877 336.6495 15.23322416529891
SMAP                    
1 40376U 15003A   24185.91727636  .00000929  00000+0  18883-3 0  9990
2 40376  98.1272 192.0712 0001341  85.2083 274.9272 14.63368271503303
KOMPSAT-3A              
1 40536U 15014A   24186.12004695  .00009434  00000+0  40908-3 0  9990
2 40536  97.6133 136.5436 0001760 190.2332 169.8868 15.22582913512283
SENTINEL-2A             
1 40697U 15028A   24186.16559664  .00000218  00000+0  99816-4 0  9992
2 40697  98.5684 260.1939 0001236  95.4268 264.7055 14.30817141471779
GAOFEN-8                
1 40701U 15030A   24186.18699545  .00015048  00000+0  62241-3 0  9994
2 40701  97.6564 341.2365 0005795 223.9723 136.1053 15.24052293502233
CARBONITE 1 (CBNT-1)    
1 40718U 15032D   24186.11961441  .00002574  00000+0  35723-3 0  9999
2 40718  97.6575  25.4437 0017018 107.5390 252.7683 14.78638439483762
YAOGAN-27               
1 40878U 15040A   24186.16973364 -.00000023  00000+0  51487-4 0  9991
2 40878 100.0785 194.1795 0009068  62.4679 297.7355 13.16019601425381
GAOFEN-9 01             
1 40894U 15047A   24186.20354911  .00001598  00000+0  21736-3 0  9992
2 40894  97.7290 240.2347 0027907 314.9013  44.9934 14.79851687474610
LAPAN-A2                
1 40931U 15052B   24180.14795698  .00001574  00000+0  12542-3 0  9997
2 40931   5.9997 274.4192 0013395 238.9714 120.9097 14.77898591473081
YAOGAN-28               
1 41026U 15064A   24186.19870995  .00010267  00000+0  42810-3 0  9991
2 41026  97.2122 335.8724 0007131 124.2221 235.9693 15.23849743482070
YAOGAN-29               
1 41038U 15069A   24186.19398819  .00000711  00000+0  97093-4 0  9996
2 41038  98.0542 200.7051 0002176 137.5120 222.6261 14.81723637464980
KENT RIDGE 1            
1 41167U 15077B   24186.20223209  .00004670  00000+0  20454-3 0  9994
2 41167  14.9795 140.9033 0009977 309.8063  50.1379 15.15261225472601
TELEOS-1                
1 41169U 15077D   24185.99007701  .00020448  00000+0  61706-3 0  9994
2 41169  14.9806  46.3607 0005992 121.0290 239.0622 15.31721258473437
GAOFEN-4                
1 41194U 15083A   24185.92147035 -.00000335  00000+0  00000+0 0  9997
2 41194   0.0895 254.9554 0001249 199.9842 264.8719  1.00270825 31371
JASON-3                 
1 41240U 16002A   24186.20946664 -.00000039  00000+0  93753-4 0  9991
2 41240  66.0395 175.9861 0008518 269.7931  90.2108 12.80928887395828
SENTINEL-3A             
1 41335U 16011A   24186.20603749  .00000212  00000+0  10580-3 0  9998
2 41335  98.6231 252.7696 0001366  93.2562 266.8775 14.26740562436390
ZIYUAN 3-2 (ZY 3-2)     
1 41556U 16033A   24186.19208792  .00008550  00000+0  38560-3 0  9995
2 41556  97.4561 261.3954 0001480 135.7135 224.4219 15.21262412449583
CARTOSAT-2C             
1 41599U 16040A   24186.21419694  .00006812  00000+0  32548-3 0  9997
2 41599  97.4735 245.0967 0014347 102.1160 258.1683 15.19258072445464
SKYSAT-C1               
1 41601U 16040C   24185.91740843  .00011334  00000+0  39897-3 0  9999
2 41601  97.0616 245.4847 0002740 160.3603 199.7744 15.29467820448707
LAPAN-A3                
1 41603U 16040E   24186.16704274  .00003805  00000+0  15298-3 0  9990
2 41603  97.1410 199.1184 0013260  48.3695 311.8678 15.25413788445818
BIROS                   
1 41604U 16040F   24185.58763039  .00012740  00000+0  33226-3 0  9999
2 41604  97.1217 213.5838 0007852   0.9116 359.2143 15.38929738446706
GAOFEN-3                
1 41727U 16049A   24186.22377294  .00000124  00000+0  50902-4 0  9994
2 41727  98.4041 193.6366 0001264  98.5052 261.6281 14.42220829415870
SKYSAT-C4               
1 41771U 16058B   24185.85944141  .00015971  00000+0  47915-3 0  9997
2 41771  97.0087 232.5649 0004670 110.4744 249.7002 15.34524170435774
SKYSAT-C5               
1 41772U 16058C   24186.14474524  .00012358  00000+0  37573-3 0  9999
2 41772  97.1574 240.9036 0002795  62.8215 297.3314 15.34170610434296
SKYSAT-C2               
1 41773U 16058D   24185.70385433  .00010392  00000+0  36612-3 0  9990
2 41773  97.0113 231.1031 0004137 128.2845 231.8769 15.29455793435649
SKYSAT-C3               
1 41774U 16058E   24186.14962771  .00017805  00000+0  42778-3 0  9992
2 41774  97.0100 239.4324 0005047 119.0390 241.1364 15.41374945436252
ALSAT 1B                
1 41785U 16059C   24186.19995279  .00000669  00000+0  11669-3 0  9994
2 41785  97.8173 213.9129 0009536   5.0645 355.0657 14.71017790415707
PATHFINDER 1            
1 41787U 16059E   24186.01010459  .00001152  00000+0  21959-3 0  9996
2 41787  97.8297 207.3451 0028457 319.6225  40.2867 14.65548033415160
SCATSAT 1               
1 41790U 16059H   24186.10888763  .00001132  00000+0  18740-3 0  9993
2 41790  98.2190 228.9839 0062408  12.4200 347.8527 14.71060092411576
GOKTURK 1A              
1 41875U 16073A   24186.20405158  .00000707  00000+0  14791-3 0  9996
2 41875  98.1489  80.3220 0001657  94.9255 265.2136 14.62782306404590
RESOURCESAT-2A          
1 41877U 16074A   24186.18042090  .00000230  00000+0  12464-3 0  9994
2 41877  98.6451 259.2983 0000765  35.8589 324.2640 14.21659725393004
CARTOSAT-2D             
1 41948U 17008A   24186.18175871  .00007536  00000+0  35940-3 0  9995
2 41948  97.4251 245.1681 0006146 202.8184 157.2778 15.19358104409327
SENTINEL-2B             
1 42063U 17013A   24186.20056011  .00000199  00000+0  92497-4 0  9996
2 42063  98.5689 260.2241 0001174  94.8735 265.2582 14.30819707382696
ZHUHAI-1 02 (CAS-4B)    
1 42759U 17034B   24186.16698792  .00016687  00000+0  59051-3 0  9991
2 42759  43.0175 130.5499 0010038 102.7493 257.4482 15.28850852390006
NUSAT-3 (MILANESAT)     
1 42760U 17034C   24186.15770965  .00020338  00000+0  64769-3 0  9995
2 42760  43.0071 115.4999 0013286 131.8411 228.3578 15.32115072390197
ZHUHAI-1 01 (CAS-4A)    
1 42761U 17034D   24186.16709066  .00018253  00000+0  64274-3 0  9995
2 42761  43.0213 128.8883 0009125 117.3938 242.7844 15.28968803390016
CARTOSAT-2E             
1 42767U 17036C   24186.13246206  .00007016  00000+0  33645-3 0  9995
2 42767  97.4374 245.2479 0004639 280.5089  79.5623 15.19199606389884
FORMOSAT-5              
1 42920U 17049A   24186.22650442  .00000365  00000+0  10350-3 0  9999
2 42920  98.2909 263.7072 0011840 114.9769 245.2657 14.50993018363298
SENTINEL-5P             
1 42969U 17064A   24186.10231320  .00000113  00000+0  74201-4 0  9993
2 42969  98.7215 125.0513 0001107  77.7879 282.3421 14.19540123348394
SKYSAT-C11              
1 42987U 17068A   24185.87830982  .00018505  00000+0  45949-3 0  9999
2 42987  97.3601 312.2950 0002430 221.1770 138.9293 15.40384834373210
SKYSAT-C10              
1 42988U 17068B   24185.93220029  .00013094  00000+0  43044-3 0  9994
2 42988  97.3682 311.8048 0004063 139.0697 221.0850 15.31662035373150
SKYSAT-C9               
1 42989U 17068C   24185.79220784  .00013335  00000+0  44966-3 0  9999
2 42989  97.3616 310.1326 0010599 222.2811 137.7614 15.30789590373328
SKYSAT-C8               
1 42990U 17068D   24185.86291947  .00011990  00000+0  42442-3 0  9990
2 42990  97.3710 311.2541 0002746 152.1300 208.0088 15.29284093373092
SKYSAT-C7               
1 42991U 17068E   24185.88700254  .00012457  00000+0  43960-3 0  9994
2 42991  97.3709 311.7009 0001878  70.2431 289.9011 15.29376273373125
